TDRS 3                  
1 19548U 88091B   26095.09341889 -.00000299  00000+0  00000+0 0  9996
2 19548  12.6575 341.4838 0042131 356.1833 200.3394  1.00267471124653
FLTSATCOM 8 (USA 46)    
1 20253U 89077A   26094.62891147 -.00000367  00000+0  00000+0 0  9997
2 20253  12.4422 351.6054 0007944 358.0848 195.4376  1.00271462259827
SKYNET 4C               
1 20776U 90079A   26094.82466319  .00000127  00000+0  00000+0 0  9995
2 20776  13.3636 350.3148 0003469  18.3144 154.7866  1.00277012130150
TDRS 5                  
1 21639U 91054B   26094.42822816  .00000084  00000+0  00000+0 0  9994
2 21639  14.0809 354.3247 0008637 279.6049 265.4293  1.00279312126975
TDRS 6                  
1 22314U 93003B   26095.14036955 -.00000295  00000+0  00000+0 0  9997
2 22314  14.1820 357.6020 0005109 182.3761  18.0551  1.00267209121670
UFO 2 (USA 95)          
1 22787U 93056A   26094.89498661  .00000126  00000+0  00000+0 0  9998
2 22787  11.8672   3.9494 0009033 294.0669 246.1287  1.00268061117815
USA 99 (MILSTAR-1 1)    
1 22988U 94009A   26094.30100031 -.00000199  00000+0  00000+0 0  9998
2 22988  17.5086  28.5066 0003980 336.0129 206.4810  1.00272886 32212
UFO 4 (USA 108)         
1 23467U 95003A   26095.14469800 -.00000020  00000+0  00000+0 0  9994
2 23467   9.6974  13.4701 0003474 354.8190  49.6122  1.00269479114225
TDRS 7                  
1 23613U 95035B   26094.70311714 -.00000237  00000+0  00000+0 0  9993
2 23613  13.4081 348.6953 0009339  55.5374 130.8856  1.00268258112518
USA 115 (MILSTAR-1 2)   
1 23712U 95060A   26091.42045836 -.00000027  00000+0  00000+0 0  9993
2 23712  14.0463   4.3204 0003938 354.5502 222.3022  1.00275542 32111
INMARSAT 3-F1           
1 23839U 96020A   26095.17037921 -.00000204  00000+0  00000+0 0  9999
2 23839  10.4516  47.2944 0004695 304.0486 242.6303  1.00000378109529
INMARSAT 3-F2           
1 24307U 96053A   26095.02752892  .00000111  00000+0  00000+0 0  9997
2 24307   9.6933  54.6678 0006404 324.3249  45.7943  0.99984904108198
INMARSAT 3-F3           
1 24674U 96070A   26094.77049628 -.00000354  00000+0  00000+0 0  9990
2 24674  10.1617  50.3417 0005579 298.8965 241.3736  0.99989066107172
AMC-3                   
1 24936U 97050A   26095.21646103 -.00000259  00000+0  00000+0 0  9995
2 24936   7.9683  64.9056 0003346 310.7113 183.8227  1.00271221 51701
USA 134                 
1 25019U 97065A   26094.36782058 -.00000061  00000+0  00000+0 0  9990
2 25019  12.6979  22.2703 0006366 322.9409 227.4416  1.00271311 32219
INMARSAT 3-F5           
1 25153U 98006B   26095.32429917 -.00000288  00000+0  00000+0 0  9995
2 25153   9.5321  53.9686 0005349 324.6220 237.8069  1.00272572103167
ABS-6                   
1 25924U 99053A   26095.13467241 -.00000119  00000+0  00000+0 0  9998
2 25924   0.0482  91.7147 0002977 303.7121   5.4832  1.00271979 97104
